{"type": "FeatureCollection", "features": [{"type": "Feature", "properties": {"norad_id": 22490, "name": "SCD 1", "group": "resource", "lat": 8.393946074782573, "lon": 134.4848392229439, "alt_km": 726.2046562677542, "timestamp": "2025-12-03T22:42:32.313070+00:00", "meta": {"OBJECT_NAME": "SCD 1", "OBJECT_ID": "1993-009B", "EPOCH": "2025-12-03T11:00:20.206080", "MEAN_MOTION": 14.45987996, "ECCENTRICITY": 0.0041816, "INCLINATION": 24.971, "RA_OF_ASC_NODE": 335.9791, "ARG_OF_PERICENTER": 226.2897, "MEAN_ANOMALY": 270.2791, "EPHEMERIS_TYPE": 0, "CLASSIFICATION_TYPE": "U", "NORAD_CAT_ID": 22490, "ELEMENT_SET_NO": 999, "REV_AT_EPOCH": 73275, "BSTAR": 0.00014087, "MEAN_MOTION_DOT": 7.02e-06, "MEAN_MOTION_DDOT": 0}, "tle": {"line1": "1 22490U 93009B   25337.45856720  .00000702  00000+0  14087-3 0  9996", "line2": "2 22490  24.9710 335.9791 0041816 226.2897 270.2791 14.45987996732759"}}, "geometry": {"type": "Point", "coordinates": [134.4848392229439, 8.393946074782573]}}, {"type": "Feature", "properties": {"norad_id": 25397, "name": "TECHSAT 1B (GO-32)", "group": "resource", "lat": 73.91429989522929, "lon": 174.2583773156076, "alt_km": 802.1348833655293, "timestamp": "2025-12-03T22:42:32.313111+00:00", "meta": {"OBJECT_NAME": "TECHSAT 1B (GO-32)", "OBJECT_ID": "1998-043D", "EPOCH": "2025-12-03T12:06:36.914688", "MEAN_MOTION": 14.24372776, "ECCENTRICITY": 0.0002238, "INCLINATION": 98.9913, "RA_OF_ASC_NODE": 320.504, "ARG_OF_PERICENTER": 72.7174, "MEAN_ANOMALY": 287.4249, "EPHEMERIS_TYPE": 0, "CLASSIFICATION_TYPE": "U", "NORAD_CAT_ID": 25397, "ELEMENT_SET_NO": 999, "REV_AT_EPOCH": 42347, "BSTAR": 8.4963e-05, "MEAN_MOTION_DOT": 1.5e-06, "MEAN_MOTION_DDOT": 0}, "tle": {"line1": "1 25397U 98043D   25337.50459392  .00000150  00000+0  84963-4 0  9996", "line2": "2 25397  98.9913 320.5040 0002238  72.7174 287.4249 14.24372776423473"}}, "geometry": {"type": "Point", "coordinates": [174.2583773156076, 73.91429989522929]}}, {"type": "Feature", "properties": {"norad_id": 25504, "name": "SCD 2", "group": "resource", "lat": -12.401249162664767, "lon": 44.28530636605542, "alt_km": 728.4113727530985, "timestamp": "2025-12-03T22:42:32.313127+00:00", "meta": {"OBJECT_NAME": "SCD 2", "OBJECT_ID": "1998-060A", "EPOCH": "2025-12-03T07:34:14.746944", "MEAN_MOTION": 14.45414838, "ECCENTRICITY": 0.0016689, "INCLINATION": 24.9937, "RA_OF_ASC_NODE": 200.0088, "ARG_OF_PERICENTER": 212.8278, "MEAN_ANOMALY": 308.9112, "EPHEMERIS_TYPE": 0, "CLASSIFICATION_TYPE": "U", "NORAD_CAT_ID": 25504, "ELEMENT_SET_NO": 999, "REV_AT_EPOCH": 43195, "BSTAR": 0.00010911, "MEAN_MOTION_DOT": 5.73e-06, "MEAN_MOTION_DDOT": 0}, "tle": {"line1": "1 25504U 98060A   25337.31544846  .00000573  00000+0  10911-3 0  9993", "line2": "2 25504  24.9937 200.0088 0016689 212.8278 308.9112 14.45414838431958"}}, "geometry": {"type": "Point", "coordinates": [44.28530636605542, -12.401249162664767]}}, {"type": "Feature", "properties": {"norad_id": 25757, "name": "DLR-TUBSAT", "group": "resource", "lat": 22.40748506352775, "lon": 145.7898750443608, "alt_km": 713.3585196805261, "timestamp": "2025-12-03T22:42:32.313138+00:00", "meta": {"OBJECT_NAME": "DLR-TUBSAT", "OBJECT_ID": "1999-029B", "EPOCH": "2025-12-03T12:03:56.267712", "MEAN_MOTION": 14.52351822, "ECCENTRICITY": 0.00134, "INCLINATION": 98.6555, "RA_OF_ASC_NODE": 321.7318, "ARG_OF_PERICENTER": 221.9071, "MEAN_ANOMALY": 138.1098, "EPHEMERIS_TYPE": 0, "CLASSIFICATION_TYPE": "U", "NORAD_CAT_ID": 25757, "ELEMENT_SET_NO": 999, "REV_AT_EPOCH": 40484, "BSTAR": 6.6409e-05, "MEAN_MOTION_DOT": 2.22e-06, "MEAN_MOTION_DDOT": 0}, "tle": {"line1": "1 25757U 99029B   25337.50273458  .00000222  00000+0  66409-4 0  9993", "line2": "2 25757  98.6555 321.7318 0013400 221.9071 138.1098 14.52351822404844"}}, "geometry": {"type": "Point", "coordinates": [145.7898750443608, 22.40748506352775]}}, {"type": "Feature", "properties": {"norad_id": 25994, "name": "TERRA", "group": "resource", "lat": -49.21782970973134, "lon": 39.30696697377705, "alt_km": 699.3536178611075, "timestamp": "2025-12-03T22:42:32.313150+00:00", "meta": {"OBJECT_NAME": "TERRA", "OBJECT_ID": "1999-068A", "EPOCH": "2025-12-03T10:21:41.743296", "MEAN_MOTION": 14.60935008, "ECCENTRICITY": 0.0003406, "INCLINATION": 97.9762, "RA_OF_ASC_NODE": 29.4571, "ARG_OF_PERICENTER": 116.5556, "MEAN_ANOMALY": 9.4738, "EPHEMERIS_TYPE": 0, "CLASSIFICATION_TYPE": "U", "NORAD_CAT_ID": 25994, "ELEMENT_SET_NO": 999, "REV_AT_EPOCH": 38102, "BSTAR": 0.00017035, "MEAN_MOTION_DOT": 7.9e-06, "MEAN_MOTION_DDOT": 0}, "tle": {"line1": "1 25994U 99068A   25337.43173314  .00000790  00000+0  17035-3 0  9991", "line2": "2 25994  97.9762  29.4571 0003406 116.5556   9.4738 14.60935008381022"}}, "geometry": {"type": "Point", "coordinates": [39.30696697377705, -49.21782970973134]}}, {"type": "Feature", "properties": {"norad_id": 27004, "name": "MAROC-TUBSAT", "group": "resource", "lat": -72.83412214401733, "lon": -179.7758967263131, "alt_km": 991.8100558151009, "timestamp": "2025-12-03T22:42:32.313161+00:00", "meta": {"OBJECT_NAME": "MAROC-TUBSAT", "OBJECT_ID": "2001-056D", "EPOCH": "2025-12-03T11:04:37.295328", "MEAN_MOTION": 13.70252177, "ECCENTRICITY": 0.0019106, "INCLINATION": 99.7912, "RA_OF_ASC_NODE": 145.7441, "ARG_OF_PERICENTER": 284.8565, "MEAN_ANOMALY": 129.7729, "EPHEMERIS_TYPE": 0, "CLASSIFICATION_TYPE": "U", "NORAD_CAT_ID": 27004, "ELEMENT_SET_NO": 999, "REV_AT_EPOCH": 19938, "BSTAR": 3.2894e-05, "MEAN_MOTION_DOT": -1.8e-07, "MEAN_MOTION_DDOT": 0}, "tle": {"line1": "1 27004U 01056D   25337.46154277 -.00000018  00000+0  32894-4 0  9990", "line2": "2 27004  99.7912 145.7441 0019106 284.8565 129.7729 13.70252177199385"}}, "geometry": {"type": "Point", "coordinates": [-179.7758967263131, -72.83412214401733]}}, {"type": "Feature", "properties": {"norad_id": 27424, "name": "AQUA", "group": "resource", "lat": 22.18190159175828, "lon": 122.13804474558565, "alt_km": 686.8212423785935, "timestamp": "2025-12-03T22:42:32.313172+00:00", "meta": {"OBJECT_NAME": "AQUA", "OBJECT_ID": "2002-022A", "EPOCH": "2025-12-03T12:38:49.693920", "MEAN_MOTION": 14.61772454, "ECCENTRICITY": 7.57e-05, "INCLINATION": 98.4024, "RA_OF_ASC_NODE": 298.2571, "ARG_OF_PERICENTER": 108.7949, "MEAN_ANOMALY": 3.7407, "EPHEMERIS_TYPE": 0, "CLASSIFICATION_TYPE": "U", "NORAD_CAT_ID": 27424, "ELEMENT_SET_NO": 999, "REV_AT_EPOCH": 25468, "BSTAR": 0.00033803, "MEAN_MOTION_DOT": 1.637e-05, "MEAN_MOTION_DDOT": 0}, "tle": {"line1": "1 27424U 02022A   25337.52696405  .00001637  00000+0  33803-3 0  9998", "line2": "2 27424  98.4024 298.2571 0000757 108.7949   3.7407 14.61772454254686"}}, "geometry": {"type": "Point", "coordinates": [122.13804474558565, 22.18190159175828]}}, {"type": "Feature", "properties": {"norad_id": 28051, "name": "IRS-P6 (RESOURCESAT-1)", "group": "resource", "lat": 64.25117272403584, "lon": -143.80187107599485, "alt_km": 767.1278988822141, "timestamp": "2025-12-03T22:42:32.313182+00:00", "meta": {"OBJECT_NAME": "IRS-P6 (RESOURCESAT-1)", "OBJECT_ID": "2003-046A", "EPOCH": "2025-12-03T12:38:12.287040", "MEAN_MOTION": 14.36067604, "ECCENTRICITY": 0.0063659, "INCLINATION": 98.2191, "RA_OF_ASC_NODE": 18.3601, "ARG_OF_PERICENTER": 208.442, "MEAN_ANOMALY": 258.3255, "EPHEMERIS_TYPE": 0, "CLASSIFICATION_TYPE": "U", "NORAD_CAT_ID": 28051, "ELEMENT_SET_NO": 999, "REV_AT_EPOCH": 15244, "BSTAR": 0.00013005, "MEAN_MOTION_DOT": 3.46e-06, "MEAN_MOTION_DDOT": 0}, "tle": {"line1": "1 28051U 03046A   25337.52653110  .00000346  00000+0  13005-3 0  9996", "line2": "2 28051  98.2191  18.3601 0063659 208.4420 258.3255 14.36067604152449"}}, "geometry": {"type": "Point", "coordinates": [-143.80187107599485, 64.25117272403584]}}, {"type": "Feature", "properties": {"norad_id": 28220, "name": "SHIYAN-1 (SY-1)", "group": "resource", "lat": -35.83256581538416, "lon": 44.7196744599604, "alt_km": 485.2709277115091, "timestamp": "2025-12-03T22:42:32.313193+00:00", "meta": {"OBJECT_NAME": "SHIYAN-1 (SY-1)", "OBJECT_ID": "2004-012A", "EPOCH": "2025-12-03T10:17:30.156000", "MEAN_MOTION": 15.27757445, "ECCENTRICITY": 0.0006296, "INCLINATION": 97.8956, "RA_OF_ASC_NODE": 38.4206, "ARG_OF_PERICENTER": 0.1303, "MEAN_ANOMALY": 359.9935, "EPHEMERIS_TYPE": 0, "CLASSIFICATION_TYPE": "U", "NORAD_CAT_ID": 28220, "ELEMENT_SET_NO": 999, "REV_AT_EPOCH": 18114, "BSTAR": 0.00059583, "MEAN_MOTION_DOT": 0.00016102, "MEAN_MOTION_DDOT": 0}, "tle": {"line1": "1 28220U 04012A   25337.42882125  .00016102  00000+0  59583-3 0  9995", "line2": "2 28220  97.8956  38.4206 0006296   0.1303 359.9935 15.27757445181148"}}, "geometry": {"type": "Point", "coordinates": [44.7196744599604, -35.83256581538416]}}, {"type": "Feature", "properties": {"norad_id": 28376, "name": "AURA", "group": "resource", "lat": -43.455515227547885, "lon": -63.900317384391386, "alt_km": 697.4185027497388, "timestamp": "2025-12-03T22:42:32.313203+00:00", "meta": {"OBJECT_NAME": "AURA", "OBJECT_ID": "2004-026A", "EPOCH": "2025-12-03T11:24:13.339296", "MEAN_MOTION": 14.60910256, "ECCENTRICITY": 0.0001084, "INCLINATION": 98.317, "RA_OF_ASC_NODE": 287.6596, "ARG_OF_PERICENTER": 91.1236, "MEAN_ANOMALY": 269.0088, "EPHEMERIS_TYPE": 0, "CLASSIFICATION_TYPE": "U", "NORAD_CAT_ID": 28376, "ELEMENT_SET_NO": 999, "REV_AT_EPOCH": 13763, "BSTAR": 0.0003482, "MEAN_MOTION_DOT": 1.657e-05, "MEAN_MOTION_DDOT": 0}, "tle": {"line1": "1 28376U 04026A   25337.47515439  .00001657  00000+0  34820-3 0  9994", "line2": "2 28376  98.3170 287.6596 0001084  91.1236 269.0088 14.60910256137631"}}, "geometry": {"type": "Point", "coordinates": [-63.900317384391386, -43.455515227547885]}}]}